[{"OBJECT_NAME":"STARLINK-32148","OBJECT_ID":"2024-131J","EPOCH":"2026-03-09T06:25:32.989152","MEAN_MOTION":15.30189069,"ECCENTRICITY":0.00012409,"INCLINATION":53.1611,"RA_OF_ASC_NODE":54.4138,"ARG_OF_PERICENTER":91.6952,"MEAN_ANOMALY":268.4191,"EPHEMERIS_TYPE":0,"CLASSIFICATION_TYPE":"U","NORAD_CAT_ID":60263,"ELEMENT_SET_NO":999,"REV_AT_EPOCH":9170,"BSTAR":2.7625241e-5,"MEAN_MOTION_DOT":4.59e-6,"MEAN_MOTION_DDOT":0},{"OBJECT_NAME":"SCS-01 M","OBJECT_ID":"2025-100M","EPOCH":"2026-03-09T23:50:15.541152","MEAN_MOTION":15.31880861,"ECCENTRICITY":0.00078021,"INCLINATION":97.3725,"RA_OF_ASC_NODE":145.6908,"ARG_OF_PERICENTER":292.3826,"MEAN_ANOMALY":67.6588,"EPHEMERIS_TYPE":0,"CLASSIFICATION_TYPE":"U","NORAD_CAT_ID":63993,"ELEMENT_SET_NO":999,"REV_AT_EPOCH":4565,"BSTAR":0.0012010051,"MEAN_MOTION_DOT":0.00037061,"MEAN_MOTION_DDOT":0}]
